GLOBALSTAR M068         
1 32266U 07048D   25056.33744229 -.00000051  00000+0  29104-3 0  9995
2 32266  51.9879 283.2138 0000146 186.9841 344.9782 12.62816100803426
GLOBALSTAR M079         
1 37188U 10054A   25056.43778200 -.00000085  00000+0  10336-3 0  9995
2 37188  52.0030 119.9705 0000692  94.9287 278.0816 12.62271219662343
GLOBALSTAR M074         
1 37189U 10054B   25056.46434715 -.00000084  00000+0  11064-3 0  9997
2 37189  52.0007 119.2304 0000718 127.6217 245.2957 12.62266676662952
GLOBALSTAR M076         
1 37190U 10054C   25056.92105250 -.00000082  00000+0  12076-3 0  9991
2 37190  52.0022 117.9972 0000923 111.6128  60.1341 12.62278000663089
GLOBALSTAR M077         
1 37191U 10054D   25056.50941351 -.00000087  00000+0  91372-4 0  9998
2 37191  52.0069  76.0767 0000411 112.9738  45.0981 12.62271205663049
GLOBALSTAR M075         
1 37192U 10054E   25056.60200894 -.00000102  00000+0  11588-4 0  9999
2 37192  51.9939 161.2872 0000794 116.7412 344.5873 12.62273305661759
GLOBALSTAR M073         
1 37193U 10054F   25056.53762473 -.00000081  00000+0  12553-3 0  9996
2 37193  52.0057  75.2190 0000513 102.8903  63.4858 12.62263676663730
GLOBALSTAR M083         
1 37739U 11033A   25056.91683851 -.00000096  00000+0  44898-4 0  9998
2 37739  51.9885  22.9452 0000391  56.1426 335.9649 12.62259621633162
GLOBALSTAR M088         
1 37740U 11033B   25056.88621766 -.00000054  00000+0  27554-3 0  9996
2 37740  51.9732 288.6277 0000784  70.7539 302.3237 12.62263460628637
GLOBALSTAR M091         
1 37741U 11033C   25056.50516240 -.00000076  00000+0  15462-3 0  9995
2 37741  51.9980 253.1440 0000847  67.5870 312.2230 12.62265233629087
GLOBALSTAR M085         
1 37742U 11033D   25056.58422597 -.00000109  00000+0 -31226-4 0  9990
2 37742  51.9854 204.0383 0000812  87.5656 351.6972 12.62265681629600
GLOBALSTAR M081         
1 37743U 11033E   25056.61068308 -.00000108  00000+0 -22454-4 0  9993
2 37743  51.9941 206.6744 0001030  88.7898 351.4680 12.62261136629752
GLOBALSTAR M089         
1 37744U 11033F   25056.57703902 -.00000106  00000+0 -97082-5 0  9993
2 37744  51.9922 161.0272 0000980 119.8515 346.9715 12.62266434630595
GLOBALSTAR M084         
1 38040U 11080A   25056.36534918 -.00000087  00000+0  92578-4 0  9992
2 38040  52.0026  28.8978 0000569 112.8399  51.8213 12.62262541608541
GLOBALSTAR M080         
1 38041U 11080B   25056.41926385 -.00000094  00000+0  56780-4 0  9995
2 38041  52.0080  30.3040 0000821 105.7944  62.2180 12.62277342608676
GLOBALSTAR M082         
1 38042U 11080C   25056.51189851 -.00000082  00000+0  12264-3 0  9991
2 38042  52.0104 345.4557 0000496  16.3352 154.8649 12.62273328609393
GLOBALSTAR M092         
1 38043U 11080D   25056.55829336 -.00000097  00000+0  39613-4 0  9999
2 38043  52.0080  75.6829 0000388 126.9061  15.2382 12.62273081607855
GLOBALSTAR M090         
1 38044U 11080E   25056.53853088 -.00000080  00000+0  13470-3 0  9993
2 38044  51.9912 339.3284 0000574  51.5657 119.6006 12.62267087609510
GLOBALSTAR M086         
1 38045U 11080F   25056.56491628 -.00000076  00000+0  15455-3 0  9995
2 38045  51.9924 339.7904 0001471  71.4471 100.1025 12.62267088609460
GLOBALSTAR M097         
1 39072U 13005A   25056.55384355 -.00000071  00000+0  18420-3 0  9992
2 39072  52.0029 254.2586 0001019  75.6559 284.4421 12.62270557556717
GLOBALSTAR M093         
1 39073U 13005B   25056.84364674 -.00000081  00000+0  12654-3 0  9991
2 39073  51.9791 246.8532 0001014  76.5829 283.5150 12.62262033556826
GLOBALSTAR M094         
1 39074U 13005C   25056.60645566 -.00000106  00000+0 -12616-4 0  9996
2 39074  51.9951 161.8472 0000829  89.6313 270.4648 12.62268485558286
GLOBALSTAR M096         
1 39075U 13005D   25056.61970910 -.00000107  00000+0 -15339-4 0  9998
2 39075  52.0057 210.2345 0000911  80.1144 279.9825 12.62268636557204
GLOBALSTAR M078         
1 39076U 13005E   25056.35502483 -.00000137  00000+0 -18490-3 0  9999
2 39076  51.9880 295.7002 0000580 340.4540  19.6304 12.62270832555793
GLOBALSTAR M095         
1 39077U 13005F   25056.38196354 -.00000057  00000+0  25851-3 0  9998
2 39077  51.9800 292.8747 0000834  34.3417 325.7503 12.62266997555658
GLOBALSTAR M087         
1 52888U 22064A   25056.49183966 -.00000080  00000+0  13089-3 0  9991
2 52888  51.9789  73.9412 0000277  88.1690 271.9208 12.62268941130932
